start=new Date('2022-05-01T00:00:00.000Z').valueOf();
sats=[{"MEAN_MOTION_DDOT":"0.0000000000000","LAUNCH_DATE":"2021-11-13","FILE":"3423346","INCLINATION":"53.2183","CENTER_NAME":"EARTH","EPHEMERIS_TYPE":"0","ECCENTRICITY":"0.00019190","OBJECT_NAME":"STARLINK-3145","REF_FRAME":"TEME","SITE":"AFETR","EPOCH":"2022-04-30T22:00:00.999936","REV_AT_EPOCH":"356","OBJECT_TYPE":"PAYLOAD","MEAN_ELEMENT_THEORY":"SGP4","MEAN_ANOMALY":"232.1720","COUNTRY_CODE":"US","ARG_OF_PERICENTER":"35.3931","CLASSIFICATION_TYPE":"U","TLE_LINE1":"1 49455U 21104AZ  22120.91667824 -.00026964  00000-0 -16819-2 0  9991","GP_ID":"202392948","RA_OF_ASC_NODE":"63.3329","PERIOD":"95.437","ELEMENT_SET_NO":"999","APOAPSIS":"541.042","NORAD_CAT_ID":"49455","OBJECT_ID":"2021-104AZ","TIME_SYSTEM":"UTC","DECAY_DATE":null,"MEAN_MOTION":"15.08850204","PERIAPSIS":"538.387","MEAN_MOTION_DOT":"-0.00026964","SEMIMAJOR_AXIS":"6917.849","TLE_LINE2":"2 49455  53.2183  63.3329 0001919  35.3931 232.1720 15.08850204  3565","BSTAR":"-0.00168190000000","RCS_SIZE":"LARGE"},{"TLE_LINE1":"1 49456U 21104BA  22120.91667824  .00000374  00000-0  41602-4 0  9997","ELEMENT_SET_NO":"999","PERIOD":"95.438","RA_OF_ASC_NODE":"63.3401","GP_ID":"202393199","NORAD_CAT_ID":"49456","APOAPSIS":"541.576","OBJECT_ID":"2021-104BA","PERIAPSIS":"537.987","MEAN_MOTION":"15.08828156","TIME_SYSTEM":"UTC","DECAY_DATE":null,"MEAN_MOTION_DOT":"0.00000374","SEMIMAJOR_AXIS":"6917.917","RCS_SIZE":"LARGE","TLE_LINE2":"2 49456  53.2200  63.3401 0002594  34.0303 193.5206 15.08828156  3566","BSTAR":"0.00004160200000","LAUNCH_DATE":"2021-11-13","FILE":"3423346","MEAN_MOTION_DDOT":"0.0000000000000","CENTER_NAME":"EARTH","EPHEMERIS_TYPE":"0","INCLINATION":"53.2200","OBJECT_NAME":"STARLINK-3124","ECCENTRICITY":"0.00025940","SITE":"AFETR","REF_FRAME":"TEME","REV_AT_EPOCH":"356","EPOCH":"2022-04-30T22:00:00.999936","COUNTRY_CODE":"US","MEAN_ELEMENT_THEORY":"SGP4","OBJECT_TYPE":"PAYLOAD","MEAN_ANOMALY":"193.5206","CLASSIFICATION_TYPE":"U","ARG_OF_PERICENTER":"34.0303"},{"NORAD_CAT_ID":"49457","APOAPSIS":"541.088","OBJECT_ID":"2021-104BB","TLE_LINE1":"1 49457U 21104BB  22120.91667824 -.00015718  00000-0 -97110-3 0  9992","ELEMENT_SET_NO":"999","PERIOD":"95.436","GP_ID":"202393950","RA_OF_ASC_NODE":"63.3354","TLE_LINE2":"2 49457  53.2190  63.3354 0002017  34.1624 253.3949 15.08857327  3616","BSTAR":"-0.00097110000000","RCS_SIZE":"LARGE","PERIAPSIS":"538.297","DECAY_DATE":null,"TIME_SYSTEM":"UTC","MEAN_MOTION":"15.08857327","MEAN_MOTION_DOT":"-0.00015718","SEMIMAJOR_AXIS":"6917.827","OBJECT_NAME":"STARLINK-3132","ECCENTRICITY":"0.00020170","SITE":"AFETR","REF_FRAME":"TEME","FILE":"3423346","LAUNCH_DATE":"2021-11-13","MEAN_MOTION_DDOT":"0.0000000000000","INCLINATION":"53.2190","EPHEMERIS_TYPE":"0","CENTER_NAME":"EARTH","OBJECT_TYPE":"PAYLOAD","MEAN_ELEMENT_THEORY":"SGP4","MEAN_ANOMALY":"253.3949","COUNTRY_CODE":"US","CLASSIFICATION_TYPE":"U","ARG_OF_PERICENTER":"34.1624","REV_AT_EPOCH":"361","EPOCH":"2022-04-30T22:00:00.999936"},{"LAUNCH_DATE":"2021-11-13","FILE":"3423346","MEAN_MOTION_DDOT":"0.0000000000000","INCLINATION":"53.2187","CENTER_NAME":"EARTH","EPHEMERIS_TYPE":"0","OBJECT_NAME":"STARLINK-3156","ECCENTRICITY":"0.00024060","SITE":"AFETR","REF_FRAME":"TEME","REV_AT_EPOCH":"356","EPOCH":"2022-04-30T22:00:00.999936","MEAN_ANOMALY":"219.8797","OBJECT_TYPE":"PAYLOAD","MEAN_ELEMENT_THEORY":"SGP4","COUNTRY_CODE":"US","CLASSIFICATION_TYPE":"U","ARG_OF_PERICENTER":"27.6898","TLE_LINE1":"1 49458U 21104BC  22120.91667824 -.00036313  00000-0 -22736-2 0  9998","PERIOD":"95.436","ELEMENT_SET_NO":"999","GP_ID":"202392698","RA_OF_ASC_NODE":"63.3344","NORAD_CAT_ID":"49458","APOAPSIS":"541.344","OBJECT_ID":"2021-104BC","PERIAPSIS":"538.016","TIME_SYSTEM":"UTC","DECAY_DATE":null,"MEAN_MOTION":"15.08861371","SEMIMAJOR_AXIS":"6917.815","MEAN_MOTION_DOT":"-0.00036313","BSTAR":"-0.00227360000000","TLE_LINE2":"2 49458  53.2187  63.3344 0002406  27.6898 219.8797 15.08861371  3560","RCS_SIZE":"LARGE"},{"BSTAR":"-0.00137820000000","TLE_LINE2":"2 49459  53.2196  63.3375 0002329  27.1310 280.4289 15.08850578  3560","RCS_SIZE":"LARGE","MEAN_MOTION_DOT":"-0.00022163","SEMIMAJOR_AXIS":"6917.848","PERIAPSIS":"538.102","DECAY_DATE":null,"TIME_SYSTEM":"UTC","MEAN_MOTION":"15.08850578","OBJECT_ID":"2021-104BD","NORAD_CAT_ID":"49459","APOAPSIS":"541.324","PERIOD":"95.437","ELEMENT_SET_NO":"999","GP_ID":"202392448","RA_OF_ASC_NODE":"63.3375","TLE_LINE1":"1 49459U 21104BD  22120.91667824 -.00022163  00000-0 -13782-2 0  9998","CLASSIFICATION_TYPE":"U","ARG_OF_PERICENTER":"27.1310","MEAN_ANOMALY":"280.4289","OBJECT_TYPE":"PAYLOAD","MEAN_ELEMENT_THEORY":"SGP4","COUNTRY_CODE":"US","REV_AT_EPOCH":"356","EPOCH":"2022-04-30T22:00:00.999936","SITE":"AFETR","REF_FRAME":"TEME","OBJECT_NAME":"STARLINK-3141","ECCENTRICITY":"0.00023290","INCLINATION":"53.2196","EPHEMERIS_TYPE":"0","CENTER_NAME":"EARTH","FILE":"3423346","LAUNCH_DATE":"2021-11-13","MEAN_MOTION_DDOT":"0.0000000000000"},{"OBJECT_ID":"2021-104BE","NORAD_CAT_ID":"49460","APOAPSIS":"541.427","PERIOD":"95.437","ELEMENT_SET_NO":"999","GP_ID":"202393700","RA_OF_ASC_NODE":"63.3570","TLE_LINE1":"1 49460U 21104BE  22120.91667824 -.00020007  00000-0 -12421-2 0  9994","TLE_LINE2":"2 49460  53.2186  63.3570 0002463  33.5065 294.0529 15.08847303  3600","BSTAR":"-0.00124210000000","RCS_SIZE":"LARGE","SEMIMAJOR_AXIS":"6917.858","MEAN_MOTION_DOT":"-0.00020007","PERIAPSIS":"538.019","TIME_SYSTEM":"UTC","DECAY_DATE":null,"MEAN_MOTION":"15.08847303","SITE":"AFETR","REF_FRAME":"TEME","ECCENTRICITY":"0.00024630","OBJECT_NAME":"STARLINK-3140","INCLINATION":"53.2186","CENTER_NAME":"EARTH","EPHEMERIS_TYPE":"0","LAUNCH_DATE":"2021-11-13","FILE":"3423346","MEAN_MOTION_DDOT":"0.0000000000000","ARG_OF_PERICENTER":"33.5065","CLASSIFICATION_TYPE":"U","OBJECT_TYPE":"PAYLOAD","MEAN_ANOMALY":"294.0529","MEAN_ELEMENT_THEORY":"SGP4","COUNTRY_CODE":"US","REV_AT_EPOCH":"360","EPOCH":"2022-04-30T22:00:00.999936"},{"OBJECT_ID":"2021-115A","NORAD_CAT_ID":"49724","APOAPSIS":"541.156","ELEMENT_SET_NO":"999","PERIOD":"95.439","GP_ID":"202393470","RA_OF_ASC_NODE":"353.3594","TLE_LINE1":"1 49724U 21115A   22120.91667824 -.00001708  00000-0 -89301-4 0  9999","BSTAR":"-0.00008930100000","TLE_LINE2":"2 49724  53.2126 353.3594 0001964  45.6263  21.7029 15.08823012  3571","RCS_SIZE":"LARGE","SEMIMAJOR_AXIS":"6917.932","MEAN_MOTION_DOT":"-0.00001708","PERIAPSIS":"538.439","TIME_SYSTEM":"UTC","DECAY_DATE":null,"MEAN_MOTION":"15.08823012","SITE":"AFETR","REF_FRAME":"TEME","ECCENTRICITY":"0.00019640","OBJECT_NAME":"STARLINK-3219","INCLINATION":"53.2126","CENTER_NAME":"EARTH","EPHEMERIS_TYPE":"0","FILE":"3423346","LAUNCH_DATE":"2021-12-02","MEAN_MOTION_DDOT":"0.0000000000000","CLASSIFICATION_TYPE":"U","ARG_OF_PERICENTER":"45.6263","MEAN_ANOMALY":"21.7029","OBJECT_TYPE":"PAYLOAD","MEAN_ELEMENT_THEORY":"SGP4","COUNTRY_CODE":"US","REV_AT_EPOCH":"357","EPOCH":"2022-04-30T22:00:00.999936"},{"BSTAR":"-0.00120200000000","TLE_LINE2":"2 49725  53.2193 353.3422 0002331  29.9525 217.4058 15.08836662  3561","RCS_SIZE":"LARGE","SEMIMAJOR_AXIS":"6917.891","MEAN_MOTION_DOT":"-0.00019366","DECAY_DATE":null,"TIME_SYSTEM":"UTC","MEAN_MOTION":"15.08836662","PERIAPSIS":"538.143","OBJECT_ID":"2021-115B","APOAPSIS":"541.368","NORAD_CAT_ID":"49725","GP_ID":"202392218","RA_OF_ASC_NODE":"353.3422","PERIOD":"95.438","ELEMENT_SET_NO":"999","TLE_LINE1":"1 49725U 21115B   22120.91667824 -.00019366  00000-0 -12020-2 0  9991","ARG_OF_PERICENTER":"29.9525","CLASSIFICATION_TYPE":"U","OBJECT_TYPE":"PAYLOAD","MEAN_ANOMALY":"217.4058","MEAN_ELEMENT_THEORY":"SGP4","COUNTRY_CODE":"US","EPOCH":"2022-04-30T22:00:00.999936","REV_AT_EPOCH":"356","REF_FRAME":"TEME","SITE":"AFETR","OBJECT_NAME":"STARLINK-3218","ECCENTRICITY":"0.00023310","INCLINATION":"53.2193","EPHEMERIS_TYPE":"0","CENTER_NAME":"EARTH","MEAN_MOTION_DDOT":"0.0000000000000","FILE":"3423346","LAUNCH_DATE":"2021-12-02"},{"MEAN_MOTION_DOT":"-0.00053599","SEMIMAJOR_AXIS":"6917.851","PERIAPSIS":"538.440","DECAY_DATE":null,"TIME_SYSTEM":"UTC","MEAN_MOTION":"15.08849731","TLE_LINE2":"2 49726  53.2194   3.3509 0001844  42.4067  55.1485 15.08849731  3573","BSTAR":"-0.00337390000000","RCS_SIZE":"LARGE","PERIOD":"95.437","ELEMENT_SET_NO":"999","GP_ID":"202392969","RA_OF_ASC_NODE":"3.3509","TLE_LINE1":"1 49726U 21115C   22120.91667824 -.00053599  00000-0 -33739-2 0  9998","OBJECT_ID":"2021-115C","NORAD_CAT_ID":"49726","APOAPSIS":"540.991","REV_AT_EPOCH":"357","EPOCH":"2022-04-30T22:00:00.999936","ARG_OF_PERICENTER":"42.4067","CLASSIFICATION_TYPE":"U","OBJECT_TYPE":"PAYLOAD","MEAN_ELEMENT_THEORY":"SGP4","MEAN_ANOMALY":"55.1485","COUNTRY_CODE":"US","INCLINATION":"53.2194","EPHEMERIS_TYPE":"0","CENTER_NAME":"EARTH","FILE":"3423346","LAUNCH_DATE":"2021-12-02","MEAN_MOTION_DDOT":"0.0000000000000","SITE":"AFETR","REF_FRAME":"TEME","OBJECT_NAME":"STARLINK-3237","ECCENTRICITY":"0.00018440"},{"TLE_LINE2":"2 49727  53.2185   3.3563 0001943  44.8461  32.6803 15.08828902  3579","BSTAR":"-0.00041054000000","RCS_SIZE":"LARGE","TIME_SYSTEM":"UTC","DECAY_DATE":null,"MEAN_MOTION":"15.08828902","PERIAPSIS":"538.435","MEAN_MOTION_DOT":"-0.00006814","SEMIMAJOR_AXIS":"6917.914","APOAPSIS":"541.123","NORAD_CAT_ID":"49727","OBJECT_ID":"2021-115D","TLE_LINE1":"1 49727U 21115D   22120.91667824 -.00006814  00000-0 -41054-3 0  9997","GP_ID":"202393220","RA_OF_ASC_NODE":"3.3563","PERIOD":"95.438","ELEMENT_SET_NO":"999","MEAN_ELEMENT_THEORY":"SGP4","OBJECT_TYPE":"PAYLOAD","MEAN_ANOMALY":"32.6803","COUNTRY_CODE":"US","ARG_OF_PERICENTER":"44.8461","CLASSIFICATION_TYPE":"U","EPOCH":"2022-04-30T22:00:00.999936","REV_AT_EPOCH":"357","ECCENTRICITY":"0.00019430","OBJECT_NAME":"STARLINK-3242","REF_FRAME":"TEME","SITE":"AFETR","MEAN_MOTION_DDOT":"0.0000000000000","FILE":"3423346","LAUNCH_DATE":"2021-12-02","INCLINATION":"53.2185","CENTER_NAME":"EARTH","EPHEMERIS_TYPE":"0"}];
